     2.100          NAVIGATION                              RINEX VERSION / TYPE
fic2rin                                 03/27/2012 00:06:37 PGM / RUN BY / DATE
                                                            END OF HEADER
21 12  3 26 22  0  0.0 -.213241204619D-03 -.250111042988D-11  .000000000000D+00
     .370000000000D+02 -.274375000000D+02  .511521306916D-08  .176661915130D+01
    -.153854489326D-05  .188583158888D-01  .957213342190D-05  .515363740540D+04
     .165600000000D+06 -.439584255219D-06 -.950273928781D-01 -.150874257088D-06
     .931867455471D+00  .184875000000D+03 -.227536454904D+01 -.830570310873D-08
    -.404302555110D-09  .100000000000D+01  .168100000000D+04  .000000000000D+00
     .240000000000D+01  .000000000000D+00 -.111758708954D-07  .370000000000D+02
     .158406000000D+06  .400000000000D+01
22 12  3 26 22  0  0.0  .143135432154D-03 -.113686837722D-12  .000000000000D+00
     .460000000000D+02  .938125000000D+02  .516235789007D-08 -.125545846266D+00
     .488571822643D-05  .584419351071D-02  .878237187862D-05  .515368994141D+04
     .165600000000D+06 -.502914190292D-07  .959515093049D+00  .763684511185D-07
     .927997675811D+00  .194406250000D+03 -.201065226264D+01 -.842535094969D-08
     .140720147273D-09  .100000000000D+01  .168100000000D+04  .000000000000D+00
     .240000000000D+01  .000000000000D+00 -.167638063431D-07  .460000000000D+02
     .158406000000D+06  .400000000000D+01
23 12  3 26 22  0  0.0  .220598187298D-03 -.352429196937D-11  .000000000000D+00
     .190000000000D+02  .360000000000D+02  .486091676241D-08 -.200990009307D+01
     .165961682796D-05  .765760045033D-02  .289082527161D-05  .515365340996D+04
     .165600000000D+06  .000000000000D+00  .200667549247D+01 -.163912773132D-06
     .960583086153D+00  .327062500000D+03 -.302798155195D+01 -.841677916406D-08
     .171792870148D-09  .100000000000D+01  .168100000000D+04  .000000000000D+00
     .240000000000D+01  .000000000000D+00 -.200234353542D-07  .190000000000D+02
     .158406000000D+06  .400000000000D+01
24 12  3 26 22  0  0.0  .273995101452D-05  .363797880709D-11  .000000000000D+00
     .290000000000D+02  .149375000000D+02  .434303804782D-08 -.179089380889D+01
     .948086380959D-06  .856844929513D-02  .246986746788D-05  .515373615456D+04
     .165600000000D+06  .135973095894D-06  .209010812288D+01  .763684511185D-07
     .981864725990D+00  .341812500000D+03 -.183709078543D+01 -.810855203945D-08
     .492877673191D-10  .100000000000D+01  .168100000000D+04  .000000000000D+00
     .340000000000D+01  .630000000000D+02 -.372529029846D-08  .290000000000D+02
     .158406000000D+06  .400000000000D+01
25 12  3 26 22  0  0.0  .325092114508D-04  .227373675443D-12  .000000000000D+00
     .920000000000D+02 -.571875000000D+01  .426089176896D-08  .134295720804D+01
    -.275671482086D-06  .142826151568D-02  .977702438831D-05  .515374350929D+04
     .165600000000D+06 -.223517417908D-07 -.220613204895D+01  .279396772385D-07
     .967809823930D+00  .193531250000D+03  .603527804498D+00 -.786318467606D-08
     .283226083217D-09  .100000000000D+01  .168100000000D+04  .000000000000D+00
     .240000000000D+01  .000000000000D+00  .558793544769D-08  .920000000000D+02
     .158406000000D+06  .400000000000D+01
26 12  3 26 22  0  0.0 -.213873572648D-03 -.553654899704D-10  .000000000000D+00
     .710000000000D+02  .140937500000D+02  .420660379336D-08 -.215089563869D+01
     .735744833946D-06  .209382420871D-01  .223889946938D-05  .515365871429D+04
     .165600000000D+06  .275671482086D-06  .207812461480D+01  .186264514923D-07
     .983708443108D+00  .342218750000D+03  .118150378151D+01 -.784032658107D-08
     .195008122871D-09  .100000000000D+01  .168100000000D+04  .000000000000D+00
     .240000000000D+01  .000000000000D+00 -.605359673500D-08  .710000000000D+02
     .158406000000D+06  .400000000000D+01
27 12  3 26 22  0  0.0  .370922032744D-03  .397903932026D-11  .000000000000D+00
     .840000000000D+02 -.691250000000D+02  .409981363084D-08 -.121819810010D+01
    -.359117984772D-05  .218185216654D-01  .766851007938D-05  .515375965118D+04
     .165600000000D+06 -.465661287308D-06  .300198043891D+01 -.614672899246D-07
     .982218545894D+00  .249125000000D+03 -.110555201822D+01 -.817784063989D-08
    -.113933317209D-09  .100000000000D+01  .168100000000D+04  .000000000000D+00
     .240000000000D+01  .000000000000D+00 -.419095158577D-08  .840000000000D+02
     .158406000000D+06  .400000000000D+01
28 12  3 26 22  0  0.0  .126786995679D-03  .409272615798D-11  .000000000000D+00
     .790000000000D+02 -.128437500000D+02  .415588739511D-08 -.192391817869D+00
    -.569969415665D-06  .178608867573D-01  .938028097153D-05  .515370948792D+04
     .165600000000D+06 -.158324837685D-06 -.214784423881D+01  .163912773132D-06
     .978137534029D+00  .211656250000D+03 -.183128532962D+01 -.808855120634D-08
     .296798077117D-09  .100000000000D+01  .168100000000D+04  .000000000000D+00
     .240000000000D+01  .000000000000D+00 -.107102096081D-07  .790000000000D+02
     .158406000000D+06  .400000000000D+01
29 12  3 26 22  0  0.0  .297498889267D-03  .363797880709D-11  .000000000000D+00
     .920000000000D+02 -.518750000000D+01  .477591322167D-08  .202499133800D+01
    -.337138772011D-06  .232096225955D-02  .515952706337D-05  .515360400200D+04
     .165600000000D+06  .484287738800D-07 -.110487347732D+01  .335276126862D-07
     .962873752540D+00  .280687500000D+03 -.117091541452D+01 -.813569602725D-08
     .389301930274D-10  .100000000000D+01  .168100000000D+04  .000000000000D+00
     .240000000000D+01  .000000000000D+00 -.931322574615D-08  .920000000000D+02
     .158406000000D+06  .400000000000D+01
31 12  3 26 22  0  0.0  .224094837904D-03  .443378667114D-11  .000000000000D+00
     .100000000000D+02 -.886562500000D+02  .407659837811D-08  .267628115612D+01
    -.429525971413D-05  .793322653044D-02  .741146504879D-05  .515362087822D+04
     .165600000000D+06  .128522515297D-06  .305748554187D+01  .162050127983D-06
     .981073079575D+00  .246250000000D+03 -.878754415214D+00 -.782996900678D-08
    -.314655963827D-09  .100000000000D+01  .168100000000D+04  .000000000000D+00
     .240000000000D+01  .000000000000D+00 -.130385160446D-07  .100000000000D+02
     .158406000000D+06  .400000000000D+01
13 12  3 26 21 59 44.0  .217149965465D-03 -.227373675443D-11  .000000000000D+00
     .900000000000D+01  .251250000000D+02  .433553773541D-08 -.122431194196D+01
     .132806599140D-05  .491015601438D-02  .323913991451D-05  .515369332314D+04
     .165584000000D+06 -.117346644402D-06  .208395645580D+01 -.558793544769D-08
     .986155736819D+00  .335968750000D+03  .195277848319D+01 -.819962726167D-08
     .707172313708D-10  .100000000000D+01  .168100000000D+04  .000000000000D+00
     .240000000000D+01  .000000000000D+00 -.111758708954D-07  .900000000000D+01
     .160506000000D+06  .400000000000D+01
16 12  3 26 21 59 44.0 -.228966120631D-03 -.147792889038D-11  .000000000000D+00
     .700000000000D+01 -.178750000000D+02  .400123809620D-08  .215585269272D+00
    -.102072954178D-05  .657879107166D-02  .983662903309D-05  .515363954353D+04
     .165584000000D+06  .782310962677D-07 -.215466124835D+01  .204890966415D-07
     .979795087507D+00  .197531250000D+03 -.606901439881D-01 -.779461039110D-08
     .272154193457D-09  .100000000000D+01  .168100000000D+04  .000000000000D+00
     .240000000000D+01  .000000000000D+00 -.977888703346D-08  .700000000000D+01
     .163956000000D+06  .400000000000D+01
25 12  3 26 21 59 44.0  .325092114508D-04  .227373675443D-12  .000000000000D+00
     .430000000000D+02 -.571875000000D+01  .426089176896D-08  .134061970194D+01
    -.275671482086D-06  .142825883813D-02  .977702438831D-05  .515374350929D+04
     .165584000000D+06 -.223517417908D-07 -.220613191436D+01  .279396772385D-07
     .967809813689D+00  .193531250000D+03  .603531619789D+00 -.786318467606D-08
     .283226083217D-09  .100000000000D+01  .168100000000D+04  .000000000000D+00
     .240000000000D+01  .000000000000D+00  .558793544769D-08  .430000000000D+02
     .164766000000D+06  .400000000000D+01
13 12  3 26 23 59 44.0  .217134132981D-03 -.227373675443D-11  .000000000000D+00
     .100000000000D+02  .260000000000D+02  .425732019162D-08 -.174140427042D+00
     .113621354103D-05  .491001317278D-02  .285543501377D-05  .515369314384D+04
     .172784000000D+06 -.558793544769D-07  .208389714179D+01 -.484287738800D-07
     .986156332227D+00  .337500000000D+03  .195277428315D+01 -.822712840721D-08
     .885751180806D-10  .100000000000D+01  .168100000000D+04  .000000000000D+00
     .240000000000D+01  .000000000000D+00 -.111758708954D-07  .100000000000D+02
     .165606000000D+06  .400000000000D+01
16 12  3 26 23 59 44.0 -.228976830840D-03 -.147792889038D-11  .000000000000D+00
     .800000000000D+01 -.796875000000D+01  .402052461385D-08  .126562674541D+01
    -.162050127983D-06  .657970353495D-02  .975653529167D-05  .515364213943D+04
     .172784000000D+06  .260770320892D-07 -.215471692555D+01  .800937414169D-07
     .979797104871D+00  .197500000000D+03 -.605342437342D-01 -.774175104643D-08
     .230366738556D-09  .100000000000D+01  .168100000000D+04  .000000000000D+00
     .240000000000D+01  .000000000000D+00 -.977888703346D-08  .800000000000D+01
     .165606000000D+06  .400000000000D+01
25 12  3 26 23 59 44.0  .325110740960D-04  .227373675443D-12  .000000000000D+00
     .570000000000D+02 -.803125000000D+01  .423481925436D-08  .239050792570D+01
    -.461935997009D-06  .142789969686D-02  .957213342190D-05  .515374434280D+04
     .172784000000D+06 -.353902578354D-07 -.220618858196D+01 -.353902578354D-07
     .967812151432D+00  .197781250000D+03  .603779885764D+00 -.781103964687D-08
     .312870175156D-09  .100000000000D+01  .168100000000D+04  .000000000000D+00
     .240000000000D+01  .000000000000D+00  .558793544769D-08  .570000000000D+02
     .165606000000D+06  .400000000000D+01
